NORAD_CAT_ID,OBJECT_NAME,OBJECT_TYPE,EPOCH,MEAN_MOTION,ECCENTRICITY,INCLINATION,RA_OF_ASC_NODE,ARG_OF_PERICENTER,MEAN_ANOMALY,BSTAR,MEAN_MOTION_DOT,MEAN_MOTION_DDOT,TLE_LINE0,TLE_LINE1,TLE_LINE2,SEMIMAJOR_AXIS,PERIOD,APOGEE,PERIGEE,DECAYED
53015.0,STARLINK-4262,PAYLOAD,2024-08-05 07:08:24,15.08848369,0.0001468,53.2171,174.0886,102.7722,257.3434,0.00010851,1.44e-05,0.0,0 STARLINK-4262,1 53015U 22076AF  24218.29750783  .00001440  00000-0  10851-3 0  9996,2 53015  53.2171 174.0886 0001468 102.7722 257.3434 15.08848369115219,6917.855,95.437,540.735,538.704,0.0
53015.0,STARLINK-4262,PAYLOAD,2024-08-06 03:48:27,15.0882196,0.0001222,53.2162,170.2258,103.9642,256.1486,-6.7314e-05,-1.358e-05,0.0,0 STARLINK-4262,1 53015U 22076AF  24219.15865339 -.00001358  00000-0 -67314-4 0  9993,2 53015  53.2162 170.2258 0001222 103.9642 256.1486 15.08821960115810,6917.936,95.439,540.646,538.955,0.0
53015.0,STARLINK-4262,PAYLOAD,2024-08-06 13:20:46,15.08827007,0.0001342,53.2171,168.4425,105.4476,254.6664,-3.7679e-05,-8.87e-06,0.0,0 STARLINK-4262,1 53015U 22076AF  24219.55609294 -.00000887  00000-0 -37679-4 0  9990,2 53015  53.2171 168.4425 0001342 105.4476 254.6664 15.08827007115404,6917.92,95.438,540.713,538.857,0.0
53015.0,STARLINK-4262,PAYLOAD,2024-08-07 02:03:50,15.0884431,0.0001173,53.2161,166.062,99.963,260.1495,9.3141e-05,1.195e-05,0.0,0 STARLINK-4262,1 53015U 22076AF  24220.08600027  .00001195  00000-0  93141-4 0  9992,2 53015  53.2161 166.0620 0001173  99.9630 260.1495 15.08844310115955,6917.867,95.437,540.544,538.921,0.0
53015.0,STARLINK-4262,PAYLOAD,2024-08-08 06:40:47,15.08824728,0.0001207,53.2154,160.7097,97.3831,262.7299,-2.9185e-05,-7.52e-06,0.0,0 STARLINK-4262,1 53015U 22076AF  24221.27832634 -.00000752  00000-0 -29185-4 0  9992,2 53015  53.2154 160.7097 0001207  97.3831 262.7299 15.08824728115668,6917.927,95.439,540.627,538.957,0.0
53015.0,STARLINK-4262,PAYLOAD,2024-08-09 04:56:11,15.0884182,0.0002032,53.2156,156.5494,79.3855,280.7366,-2.3332e-06,-3.25e-06,0.0,0 STARLINK-4262,1 53015U 22076AF  24222.20568403 -.00000325  00000-0 -23332-5 0  9991,2 53015  53.2156 156.5494 0002032  79.3855 280.7366 15.08841820116272,6917.875,95.437,541.146,538.334,0.0
53015.0,STARLINK-4262,PAYLOAD,2024-08-09 12:53:05,15.08862585,0.0002072,53.2164,155.0588,78.5586,281.5639,0.00038536,5.854e-05,0.0,0 STARLINK-4262,1 53015U 22076AF  24222.53686966  .00005854  00000-0  38536-3 0  9992,2 53015  53.2164 155.0588 0002072  78.5586 281.5639 15.08862585116324,6917.811,95.436,541.11,538.243,0.0
53015.0,STARLINK-4262,PAYLOAD,2024-08-10 04:46:57,15.08846634,0.000125,53.2155,152.0862,89.2423,270.8712,0.00049155,7.545e-05,0.0,0 STARLINK-4262,1 53015U 22076AF  24223.19928206  .00007545  00000-0  49155-3 0  9999,2 53015  53.2155 152.0862 0001250  89.2423 270.8712 15.08846634116423,6917.86,95.437,540.59,538.86,0.0
53015.0,STARLINK-4262,PAYLOAD,2024-08-11 01:26:58,15.08851051,0.0001482,53.2153,148.2195,106.9746,253.1408,0.00055219,8.514e-05,0.0,0 STARLINK-4262,1 53015U 22076AF  24224.06040028  .00008514  00000-0  55219-3 0  9998,2 53015  53.2153 148.2195 0001482 106.9746 253.1408 15.08851051116558,6917.847,95.437,540.737,538.686,0.0
53015.0,STARLINK-4262,PAYLOAD,2024-08-11 12:34:40,15.08865604,0.0001576,53.215,146.1343,109.5292,250.5871,0.00094515,0.00014797,0.0,0 STARLINK-4262,1 53015U 22076AF  24224.52407458  .00014797  00000-0  94515-3 0  9995,2 53015  53.2150 146.1343 0001576 109.5292 250.5871 15.08865604116156,6917.802,95.436,540.757,538.577,0.0
53015.0,STARLINK-4262,PAYLOAD,2024-08-12 04:28:31,15.08852301,0.0001446,53.2148,143.1625,84.8479,275.2678,0.00056729,8.755e-05,0.0,0 STARLINK-4262,1 53015U 22076AF  24225.18647792  .00008755  00000-0  56729-3 0  9997,2 53015  53.2148 143.1625 0001446  84.8479 275.2678 15.08852301116723,6917.843,95.437,540.708,538.707,0.0
53015.0,STARLINK-4262,PAYLOAD,2024-08-12 18:47:00,15.08840608,9.57e-05,53.2147,140.4859,96.5327,263.5774,0.0001747,2.494e-05,0.0,0 STARLINK-4262,1 53015U 22076AF  24225.78263899  .00002494  00000-0  17470-3 0  9999,2 53015  53.2147 140.4859 0000957  96.5327 263.5774 15.08840608116813,6917.879,95.438,540.406,539.081,0.0
53015.0,STARLINK-4262,PAYLOAD,2024-08-12 21:57:46,15.08829799,0.0001131,53.2142,139.8917,96.4233,263.6888,-5.1455e-05,-1.106e-05,0.0,0 STARLINK-4262,1 53015U 22076AF  24225.91512228 -.00001106  00000-0 -51455-4 0  9990,2 53015  53.2142 139.8917 0001131  96.4233 263.6888 15.08829799116360,6917.912,95.438,540.559,538.994,0.0
53015.0,STARLINK-4262,PAYLOAD,2024-08-13 04:19:19,15.08831605,0.0001286,53.2153,138.7014,101.5924,258.5213,-3.0166e-05,-7.68e-06,0.0,0 STARLINK-4262,1 53015U 22076AF  24226.18008505 -.00000768  00000-0 -30166-4 0  9997,2 53015  53.2153 138.7014 0001286 101.5924 258.5213 15.08831605116874,6917.906,95.438,540.661,538.881,0.0
53015.0,STARLINK-4262,PAYLOAD,2024-08-13 10:40:51,15.0884775,0.0001401,53.2173,137.5185,105.4474,254.6673,0.00041443,6.315e-05,0.0,0 STARLINK-4262,1 53015U 22076AF  24226.44504040  .00006315  00000-0  41443-3 0  9992,2 53015  53.2173 137.5185 0001401 105.4474 254.6673 15.08847750116914,6917.857,95.437,540.691,538.753,0.0
53015.0,STARLINK-4262,PAYLOAD,2024-08-13 21:48:34,15.08820032,0.0001592,53.2161,135.4347,88.4581,271.6594,-0.00020879,-3.608e-05,0.0,0 STARLINK-4262,1 53015U 22076AF  24226.90873289 -.00003608  00000-0 -20879-3 0  9991,2 53015  53.2161 135.4347 0001592  88.4581 271.6594 15.08820032116519,6917.941,95.439,540.908,538.705,0.0
53015.0,STARLINK-4262,PAYLOAD,2024-08-14 04:10:07,15.08833528,0.0001353,53.2161,134.2454,94.9207,265.1939,0.00062728,9.708e-05,0.0,0 STARLINK-4262,1 53015U 22076AF  24227.17369297  .00009708  00000-0  62728-3 0  9994,2 53015  53.2161 134.2454 0001353  94.9207 265.1939 15.08833528117029,6917.9,95.438,540.701,538.829,0.0
53015.0,STARLINK-4262,PAYLOAD,2024-08-14 10:31:39,15.08854645,0.0001377,53.2165,133.0562,98.3652,261.7496,0.0013982,0.00022043,0.0,0 STARLINK-4262,1 53015U 22076AF  24227.43865075  .00022043  00000-0  13982-2 0  9992,2 53015  53.2165 133.0562 0001377  98.3652 261.7496 15.08854645117065,6917.836,95.437,540.653,538.748,0.0
53015.0,STARLINK-4262,PAYLOAD,2024-08-14 21:39:21,15.08839544,0.0002071,53.2174,130.9807,104.1009,256.0213,0.00048835,7.492e-05,0.0,0 STARLINK-4262,1 53015U 22076AF  24227.90233751  .00007492  00000-0  48835-3 0  9991,2 53015  53.2174 130.9807 0002071 104.1009 256.0213 15.08839544116667,6917.882,95.438,541.179,538.314,0.0
53015.0,STARLINK-4262,PAYLOAD,2024-08-15 00:50:08,15.08836129,0.0001758,53.2178,130.3853,107.3226,252.7959,0.00020501,2.976e-05,0.0,0 STARLINK-4262,1 53015U 22076AF  24228.03481679  .00002976  00000-0  20501-3 0  9992,2 53015  53.2178 130.3853 0001758 107.3226 252.7959 15.08836129117154,6917.892,95.438,540.973,538.541,0.0
53015.0,STARLINK-4262,PAYLOAD,2024-08-15 10:22:26,15.08856265,0.0001477,53.2177,128.5962,86.0709,274.0452,0.00067548,0.00010483,0.0,0 STARLINK-4262,1 53015U 22076AF  24228.43225192  .00010483  00000-0  67548-3 0  9996,2 53015  53.2177 128.5962 0001477  86.0709 274.0452 15.08856265116742,6917.831,95.437,540.717,538.674,0.0
53015.0,STARLINK-4262,PAYLOAD,2024-08-15 21:30:08,15.08834529,0.0001228,53.2169,126.5152,87.6825,272.4308,0.0002009,2.91e-05,0.0,0 STARLINK-4262,1 53015U 22076AF  24228.89593602  .00002910  00000-0  20090-3 0  9997,2 53015  53.2169 126.5152 0001228  87.6825 272.4308 15.08834529116811,6917.897,95.438,540.612,538.913,0.0
53015.0,STARLINK-4262,PAYLOAD,2024-08-16 00:40:55,15.08839761,0.0001093,53.2156,125.92,79.5077,280.6039,0.0017727,0.00028037,0.0,0 STARLINK-4262,1 53015U 22076AF  24229.02841694  .00028037  00000-0  17727-2 0  9990,2 53015  53.2156 125.9200 0001093  79.5077 280.6039 15.08839761117303,6917.881,95.438,540.502,538.99,0.0
53015.0,STARLINK-4262,PAYLOAD,2024-08-16 21:20:56,15.08851988,0.0001583,53.2142,122.0507,55.386,304.7281,0.0010067,0.00015775,0.0,0 STARLINK-4262,1 53015U 22076AF  24229.88953866  .00015775  00000-0  10067-2 0  9994,2 53015  53.2142 122.0507 0001583  55.3860 304.7281 15.08851988117438,6917.844,95.437,540.804,538.614,0.0
53015.0,STARLINK-4262,PAYLOAD,2024-08-17 02:07:05,15.0884856,0.0001363,53.2157,121.1581,73.7805,286.3337,0.00047687,7.311e-05,0.0,0 STARLINK-4262,1 53015U 22076AF  24230.08825663  .00007311  00000-0  47687-3 0  9997,2 53015  53.2157 121.1581 0001363  73.7805 286.3337 15.08848560117467,6917.854,95.437,540.662,538.776,0.0
53015.0,STARLINK-4262,PAYLOAD,2024-08-18 01:57:52,15.08828262,0.0001181,53.2142,116.7025,103.3555,256.7568,0.00023875,3.513e-05,0.0,0 STARLINK-4262,1 53015U 22076AF  24231.08186314  .00003513  00000-0  23875-3 0  9994,2 53015  53.2142 116.7025 0001181 103.3555 256.7568 15.08828262117615,6917.916,95.438,540.598,538.964,0.0
53015.0,STARLINK-4262,PAYLOAD,2024-08-18 21:02:30,15.08845166,0.0001379,53.2155,113.135,91.3197,268.7953,0.00024848,3.669e-05,0.0,0 STARLINK-4262,1 53015U 22076AF  24231.87674173  .00003669  00000-0  24848-3 0  9999,2 53015  53.2155 113.1350 0001379  91.3197 268.7953 15.08845166117734,6917.865,95.437,540.684,538.776,0.0
53015.0,STARLINK-4262,PAYLOAD,2024-08-18 22:37:53,15.08845203,0.00015,53.2148,112.8414,69.7297,290.3856,0.00026532,3.938e-05,0.0,0 STARLINK-4262,1 53015U 22076AF  24231.94298361  .00003938  00000-0  26532-3 0  9999,2 53015  53.2148 112.8414 0001500  69.7297 290.3856 15.08845203117273,6917.864,95.437,540.767,538.692,0.0
53015.0,STARLINK-4262,PAYLOAD,2024-08-19 00:13:16,15.08849348,0.0001314,53.2146,112.5437,93.0145,267.0997,0.00031805,4.779e-05,0.0,0 STARLINK-4262,1 53015U 22076AF  24232.00922040  .00004779  00000-0  31805-3 0  9998,2 53015  53.2146 112.5437 0001314  93.0145 267.0997 15.08849348117280,6917.852,95.437,540.626,538.808,0.0
53015.0,STARLINK-4262,PAYLOAD,2024-08-20 01:39:27,15.08835552,0.0001257,53.2154,107.7782,104.9263,255.1868,0.00014447,2.012e-05,0.0,0 STARLINK-4262,1 53015U 22076AF  24233.06906374  .00002012  00000-0  14447-3 0  9998,2 53015  53.2154 107.7782 0001257 104.9263 255.1868 15.08835552117914,6917.894,95.438,540.629,538.889,0.0
